STARLINK-5019           
1 55407U 23014S   26068.42548265  .00001216  00000+0  10961-3 0  9998
2 55407  69.9993  65.2133 0003935 271.9946  88.0763 14.98345014172018
HAWK-9A                 
1 59446U 24066E   26068.43100697  .00002638  00000+0  23459-3 0  9992
2 59446  45.6088  72.7153 0003627 244.6286 115.4219 14.98777479104861
